{
  "type": "FeatureCollection",
  "features": [
    {
      "type": "Feature",
      "properties": {
        "norad_id": 33913,
        "name": "COSMOS 2251 DEB",
        "group": "cosmos-2251-debris",
        "lat": -74.01830061228127,
        "lon": 98.7065275731076,
        "alt_km": 706.2745275523775,
        "timestamp": "2025-12-09T05:43:21.119340+00:00",
        "meta_object_name": "COSMOS 2251 DEB",
        "meta_object_id": "1993-036DS",
        "meta_epoch": "2025-12-08T15:28:35.663808",
        "meta_mean_motion": 14.48462761,
        "meta_eccentricity": 0.0048156,
        "meta_inclination": 74.0334,
        "meta_ra_of_asc_node": 191.3169,
        "meta_arg_of_pericenter": 294.6611,
        "meta_mean_anomaly": 121.1909,
        "meta_ephemeris_type": 0,
        "meta_classification_type": "U",
        "meta_norad_cat_id": 33913,
        "meta_element_set_no": 999,
        "meta_rev_at_epoch": 88398,
        "meta_bstar": 0.00086929,
        "meta_mean_motion_dot": 3.281e-05,
        "meta_mean_motion_ddot": 0,
        "tle_line1": "1 33913U 93036DS  25342.64485722  .00003281  00000+0  86929-3 0  9994",
        "tle_line2": "2 33913  74.0334 191.3169 0048156 294.6611 121.1909 14.48462761883987"
      },
      "geometry": {
        "type": "Point",
        "coordinates": [
          98.7065275731076,
          -74.01830061228127
        ]
      }
    },
    {
      "type": "Feature",
      "properties": {
        "norad_id": 33914,
        "name": "COSMOS 2251 DEB",
        "group": "cosmos-2251-debris",
        "lat": 57.0601127151682,
        "lon": 174.75088191791633,
        "alt_km": 765.346306844639,
        "timestamp": "2025-12-09T05:43:21.119350+00:00",
        "meta_object_name": "COSMOS 2251 DEB",
        "meta_object_id": "1993-036DT",
        "meta_epoch": "2025-12-08T13:57:47.959776",
        "meta_mean_motion": 13.71980501,
        "meta_eccentricity": 0.0301511,
        "meta_inclination": 74.0915,
        "meta_ra_of_asc_node": 21.9471,
        "meta_arg_of_pericenter": 125.9941,
        "meta_mean_anomaly": 351.5431,
        "meta_ephemeris_type": 0,
        "meta_classification_type": "U",
        "meta_norad_cat_id": 33914,
        "meta_element_set_no": 999,
        "meta_rev_at_epoch": 84024,
        "meta_bstar": 0.00082556,
        "meta_mean_motion_dot": 1.017e-05,
        "meta_mean_motion_ddot": 0,
        "tle_line1": "1 33914U 93036DT  25342.58180509  .00001017  00000+0  82556-3 0  9990",
        "tle_line2": "2 33914  74.0915  21.9471 0301511 125.9941 351.5431 13.71980501840249"
      },
      "geometry": {
        "type": "Point",
        "coordinates": [
          174.75088191791633,
          57.0601127151682
        ]
      }
    },
    {
      "type": "Feature",
      "properties": {
        "norad_id": 33915,
        "name": "COSMOS 2251 DEB",
        "group": "cosmos-2251-debris",
        "lat": 12.350109951931282,
        "lon": -143.06708687967912,
        "alt_km": 712.6974642447922,
        "timestamp": "2025-12-09T05:43:21.119360+00:00",
        "meta_object_name": "COSMOS 2251 DEB",
        "meta_object_id": "1993-036DU",
        "meta_epoch": "2025-12-08T14:35:22.298208",
        "meta_mean_motion": 14.35069361,
        "meta_eccentricity": 0.0104638,
        "meta_inclination": 74.0443,
        "meta_ra_of_asc_node": 41.6793,
        "meta_arg_of_pericenter": 135.3268,
        "meta_mean_anomaly": 14.8297,
        "meta_ephemeris_type": 0,
        "meta_classification_type": "U",
        "meta_norad_cat_id": 33915,
        "meta_element_set_no": 999,
        "meta_rev_at_epoch": 87698,
        "meta_bstar": 0.00075235,
        "meta_mean_motion_dot": 2.257e-05,
        "meta_mean_motion_ddot": 0,
        "tle_line1": "1 33915U 93036DU  25342.60789697  .00002257  00000+0  75235-3 0  9990",
        "tle_line2": "2 33915  74.0443  41.6793 0104638 135.3268  14.8297 14.35069361876982"
      },
      "geometry": {
        "type": "Point",
        "coordinates": [
          -143.06708687967912,
          12.350109951931282
        ]
      }
    },
    {
      "type": "Feature",
      "properties": {
        "norad_id": 33916,
        "name": "COSMOS 2251 DEB",
        "group": "cosmos-2251-debris",
        "lat": 61.457569104177324,
        "lon": 78.05519014985964,
        "alt_km": 1210.9966023356446,
        "timestamp": "2025-12-09T05:43:21.119371+00:00",
        "meta_object_name": "COSMOS 2251 DEB",
        "meta_object_id": "1993-036DV",
        "meta_epoch": "2025-12-08T14:11:33.052128",
        "meta_mean_motion": 13.68607169,
        "meta_eccentricity": 0.032543,
        "meta_inclination": 74.053,
        "meta_ra_of_asc_node": 47.4047,
        "meta_arg_of_pericenter": 220.427,
        "meta_mean_anomaly": 260.3823,
        "meta_ephemeris_type": 0,
        "meta_classification_type": "U",
        "meta_norad_cat_id": 33916,
        "meta_element_set_no": 999,
        "meta_rev_at_epoch": 83834,
        "meta_bstar": 0.00091177,
        "meta_mean_motion_dot": 1.109e-05,
        "meta_mean_motion_ddot": 0,
        "tle_line1": "1 33916U 93036DV  25342.59135477  .00001109  00000+0  91177-3 0  9998",
        "tle_line2": "2 33916  74.0530  47.4047 0325430 220.4270 260.3823 13.68607169838340"
      },
      "geometry": {
        "type": "Point",
        "coordinates": [
          78.05519014985964,
          61.457569104177324
        ]
      }
    },
    {
      "type": "Feature",
      "properties": {
        "norad_id": 33917,
        "name": "COSMOS 2251 DEB",
        "group": "cosmos-2251-debris",
        "lat": 46.817655052073384,
        "lon": -69.5381712370097,
        "alt_km": 1028.6505876192741,
        "timestamp": "2025-12-09T05:43:21.119381+00:00",
        "meta_object_name": "COSMOS 2251 DEB",
        "meta_object_id": "1993-036DW",
        "meta_epoch": "2025-12-08T16:46:50.747808",
        "meta_mean_motion": 13.69349771,
        "meta_eccentricity": 0.0331199,
        "meta_inclination": 74.1067,
        "meta_ra_of_asc_node": 129.0184,
        "meta_arg_of_pericenter": 230.8612,
        "meta_mean_anomaly": 126.2643,
        "meta_ephemeris_type": 0,
        "meta_classification_type": "U",
        "meta_norad_cat_id": 33917,
        "meta_element_set_no": 999,
        "meta_rev_at_epoch": 83678,
        "meta_bstar": 0.0012275,
        "meta_mean_motion_dot": 1.544e-05,
        "meta_mean_motion_ddot": 0,
        "tle_line1": "1 33917U 93036DW  25342.69919847  .00001544  00000+0  12275-2 0  9995",
        "tle_line2": "2 33917  74.1067 129.0184 0331199 230.8612 126.2643 13.69349771836789"
      },
      "geometry": {
        "type": "Point",
        "coordinates": [
          -69.5381712370097,
          46.817655052073384
        ]
      }
    },
    {
      "type": "Feature",
      "properties": {
        "norad_id": 33920,
        "name": "COSMOS 2251 DEB",
        "group": "cosmos-2251-debris",
        "lat": 2.9638869213826484,
        "lon": 124.23034180223195,
        "alt_km": 720.6189312527085,
        "timestamp": "2025-12-09T05:43:21.119392+00:00",
        "meta_object_name": "COSMOS 2251 DEB",
        "meta_object_id": "1993-036DZ",
        "meta_epoch": "2025-12-08T07:30:21.252672",
        "meta_mean_motion": 14.58148618,
        "meta_eccentricity": 0.00384806,
        "meta_inclination": 74.0601,
        "meta_ra_of_asc_node": 306.8361,
        "meta_arg_of_pericenter": 314.0622,
        "meta_mean_anomaly": 45.7376,
        "meta_ephemeris_type": 0,
        "meta_classification_type": "U",
        "meta_norad_cat_id": 33920,
        "meta_element_set_no": 999,
        "meta_rev_at_epoch": 88050,
        "meta_bstar": 0.0027054307,
        "meta_mean_motion_dot": 0.00012592,
        "meta_mean_motion_ddot": 0,
        "tle_line1": "1 33920U 93036DZ  25342.31274598  .00012592  00000+0  27054-2 0  9991",
        "tle_line2": "2 33920  74.0601 306.8361 0038480 314.0622  45.7376 14.58148618880504"
      },
      "geometry": {
        "type": "Point",
        "coordinates": [
          124.23034180223195,
          2.9638869213826484
        ]
      }
    },
    {
      "type": "Feature",
      "properties": {
        "norad_id": 33922,
        "name": "COSMOS 2251 DEB",
        "group": "cosmos-2251-debris",
        "lat": 63.83627285331613,
        "lon": -170.06139800681595,
        "alt_km": 736.613127803027,
        "timestamp": "2025-12-09T05:43:21.119402+00:00",
        "meta_object_name": "COSMOS 2251 DEB",
        "meta_object_id": "1993-036EB",
        "meta_epoch": "2025-12-08T19:45:22.168800",
        "meta_mean_motion": 14.49487079,
        "meta_eccentricity": 0.0023281,
        "meta_inclination": 74.0465,
        "meta_ra_of_asc_node": 155.1066,
        "meta_arg_of_pericenter": 266.2131,
        "meta_mean_anomaly": 156.7039,
        "meta_ephemeris_type": 0,
        "meta_classification_type": "U",
        "meta_norad_cat_id": 33922,
        "meta_element_set_no": 999,
        "meta_rev_at_epoch": 88521,
        "meta_bstar": 0.00084036,
        "meta_mean_motion_dot": 3.204e-05,
        "meta_mean_motion_ddot": 0,
        "tle_line1": "1 33922U 93036EB  25342.82317325  .00003204  00000+0  84036-3 0  9999",
        "tle_line2": "2 33922  74.0465 155.1066 0023281 266.2131 156.7039 14.49487079885216"
      },
      "geometry": {
        "type": "Point",
        "coordinates": [
          -170.06139800681595,
          63.83627285331613
        ]
      }
    }
  ]
}